{
  "type": "FeatureCollection",
  "features": [
    {
      "type": "Feature",
      "properties": {
        "name": "Iran Forest Risk Zone"
      },
      "geometry": {
        "type": "Polygon",
        "coordinates": [
          [
            [
              44.28,
              39.63
            ],
            [
              44.75,
              39.15
            ],
            [
              45.45,
              38.95
            ],
            [
              46.90,
              39.38
            ],
            [
              48.00,
              39.65
            ],
            [
              48.35,
              38.85
            ],
            [
              48.87,
              38.43
            ],
            [
              49.40,
              37.50
            ],
            [
              50.00,
              37.05
            ],
            [
              51.50,
              36.70
            ],
            [
              53.00,
              36.85
            ],
            [
              54.00,
              36.90
            ],
            [
              53.96,
              37.35
            ],
            [
              54.35,
              37.75
            ],
            [
              55.30,
              37.90
            ],
            [
              57.10,
              38.00
            ],
            [
              58.20,
              37.85
            ],
            [
              59.60,
              37.45
            ],
            [
              61.26,
              36.56
            ],
            [
              60.85,
              35.55
            ],
            [
              60.50,
              34.00
            ],
            [
              60.52,
              32.80
            ],
            [
              61.53,
              31.45
            ],
            [
              61.83,
              31.05
            ],
            [
              60.87,
              29.86
            ],
            [
              61.65,
              29.40
            ],
            [
              63.33,
              27.20
            ],
            [
              63.00,
              26.00
            ],
            [
              61.68,
              25.18
            ],
            [
              60.62,
              25.30
            ],
            [
              58.90,
              25.60
            ],
            [
              56.90,
              26.80
            ],
            [
              56.25,
              27.10
            ],
            [
              54.50,
              26.60
            ],
            [
              52.50,
              27.50
            ],
            [
              50.80,
              28.95
            ],
            [
              50.15,
              30.00
            ],
            [
              48.60,
              29.95
            ],
            [
              48.15,
              30.43
            ],
            [
              48.00,
              31.50
            ],
            [
              46.00,
              32.50
            ],
            [
              45.45,
              34.20
            ],
            [
              45.80,
              35.80
            ],
            [
              45.00,
              36.80
            ],
            [
              44.30,
              37.15
            ],
            [
              44.05,
              38.00
            ],
            [
              44.38,
              38.95
            ],
            [
              44.28,
              39.63
            ]
          ]
        ]
      }
    }
  ]
}